GSAT0216 (GALILEO 20)   
1 43056U 17079B   26174.17252055  .00000041  00000+0  00000+0 0  9992
2 43056  55.0723 221.3419 0004592 276.8202  83.2051  1.70474710 53100
GSAT0217 (GALILEO 21)   
1 43057U 17079C   26173.22015162  .00000034  00000+0  00000+0 0  9996
2 43057  55.0697 221.3658 0003944 287.9119  72.1199  1.70474640 53074
GSAT0218 (GALILEO 22)   
1 43058U 17079D   26171.68048465  .00000026  00000+0  00000+0 0  9998
2 43058  55.0711 221.4058 0005507 273.6284  86.3834  1.70474354 53074
BEIDOU-3 M7             
1 43107U 18003A   26171.57230178 -.00000093  00000+0  00000+0 0  9998
2 43107  54.3246 302.1971 0004847  94.8632 265.1875  1.86227868 57418
BEIDOU-3 M8             
1 43108U 18003B   26174.20176355 -.00000108  00000+0  00000+0 0  9995
2 43108  54.3145 302.0872 0002656 259.9013 100.0619  1.86231144 57470
BEIDOU-3 M4             
1 43207U 18018A   26174.10784647 -.00000093  00000+0  00000+0 0  9992
2 43207  56.6562  62.9525 0007640  21.7226 338.3453  1.86231216 56857
BEIDOU-3 M3             
1 43208U 18018B   26174.17432920 -.00000093  00000+0  00000+0 0  9994
2 43208  56.6562  62.9543 0008395 342.6756  17.3313  1.86231074 56850
BEIDOU-3 M9             
1 43245U 18029A   26174.39218531 -.00000108  00000+0  00000+0 0  9998
2 43245  54.1871 299.7309 0000971 158.0313 201.9676  1.86228535 56016
BEIDOU-3 M10            
1 43246U 18029B   26174.86347388 -.00000108  00000+0  00000+0 0  9994
2 43246  54.1851 299.7412 0003770  40.2593 319.7629  1.86229058 56008
IRNSS-1I                
1 43286U 18035A   26173.94027396  .00000069  00000+0  00000+0 0  9992
2 43286  28.7686  74.1054 0017612 182.2780  48.0829  1.00275175 30134
COSMOS 2527 [GLONASS-M] 
1 43508U 18053A   26174.18508716 -.00000065  00000+0  00000+0 0  9993
2 43508  65.5813  73.7072 0006869 237.6913 122.2741  2.13102059 62400
BEIDOU-2 IGSO-7         
1 43539U 18057A   26174.91209138 -.00000015  00000+0  00000+0 0  9993
2 43539  55.1966 162.9981 0104969 238.0220 308.7822  1.00249137 29198
GSAT0221 (GALILEO 25)   
1 43564U 18060A   26175.10398177 -.00000098  00000+0  00000+0 0  9990
2 43564  57.1671 341.5936 0002530 300.0731  59.8987  1.70476197 49287
GSAT0222 (GALILEO 26)   
1 43565U 18060B   26172.39072362 -.00000096  00000+0  00000+0 0  9992
2 43565  57.1710 341.6704 0002034 246.5054 113.4691  1.70475809 49285
GSAT0219 (GALILEO 23)   
1 43566U 18060C   26174.37136182 -.00000098  00000+0  00000+0 0  9996
2 43566  57.1701 341.6184 0001850 318.0636  41.9192  1.70476156 49292
GSAT0220 (GALILEO 24)   
1 43567U 18060D   26172.83260861 -.00000097  00000+0  00000+0 0  9997
2 43567  57.1676 341.6592 0001967 309.6967  50.2822  1.70476014 49251
BEIDOU-3 M5             
1 43581U 18062A   26175.08751292  .00000103  00000+0  00000+0 0  9995
2 43581  54.0858 182.0690 0005722 290.5821  69.3874  1.86228874 53766
BEIDOU-3 M6             
1 43582U 18062B   26173.34014156  .00000091  00000+0  00000+0 0  9990
2 43582  54.0853 182.1173 0005022   8.9352 351.1006  1.86227655 53734
BEIDOU-3 M12            
1 43602U 18067A   26174.35247302  .00000100  00000+0  00000+0 0  9992
2 43602  54.1809 180.8309 0007830  29.6950 330.3768  1.86227676 53230
BEIDOU-3 M11            
1 43603U 18067B   26175.02451503  .00000103  00000+0  00000+0 0  9991
2 43603  54.1780 180.7717 0004529  12.6932 347.3467  1.86227182 53275
BEIDOU-3 M13            
1 43622U 18072A   26173.90540965 -.00000093  00000+0  00000+0 0  9993
2 43622  56.6296  62.4708 0007084 330.7929  29.2036  1.86231073 52765
BEIDOU-3 M14            
1 43623U 18072B   26172.15997682 -.00000080  00000+0  00000+0 0  9998
2 43623  56.6300  62.5228 0006120   1.7619 358.2786  1.86231110 52726
BEIDOU-3 M16            
1 43647U 18078A   26173.92607758 -.00000107  00000+0  00000+0 0  9998
2 43647  54.0841 299.7848 0007081  40.9691 319.0792  1.86232373 52261
BEIDOU-3 M15            
1 43648U 18078B   26174.59230597 -.00000108  00000+0  00000+0 0  9997
2 43648  54.0792 299.7617 0004045  57.9352 302.0986  1.86232473 52291
BEIDOU-3 G1             
1 43683U 18085A   26175.28516769 -.00000103  00000+0  00000+0 0  9994
2 43683   2.8873  97.1803 0008390 350.6074  87.2429  1.00270768 28134
COSMOS 2529 [GLONASS-M] 
1 43687U 18086A   26174.28152532  .00000096  00000+0  00000+0 0  9992
2 43687  64.2950 192.3887 0012083 256.3991 103.5159  2.13101956 59414
BEIDOU-3 M17            
1 43706U 18093A   26174.29511074  .00000100  00000+0  00000+0 0  9999
2 43706  54.1694 182.0887 0010172 292.5726 119.7810  1.86228518 51654
BEIDOU-3 M18            
1 43707U 18093B   26174.61735332  .00000101  00000+0  00000+0 0  9992
2 43707  54.1701 182.0698 0008114 320.9628  39.0087  1.86226670 51651
NAVSTAR 77 (USA 289)    
1 43873U 18109A   26175.24218514 -.00000058  00000+0  00000+0 0  9994
2 43873  55.6863  91.9080 0038356 197.7698 340.0100  2.00562123 55211
BEIDOU-2 G8             
1 44231U 19027A   26175.01240313 -.00000242  00000+0  00000+0 0  9995
2 44231   1.6764  74.5292 0010066 283.7983  62.8140  1.00269331 26141
